[{"address1": "7036 Goshen Rd", "city": "Newtown Square", "state": "PA", "postalCode": "19073"}, {"address1": "1246 Gill Hall Rd", "city": "Clairton", "state": "PA", "postalCode": "15025"}, {"address1": "807 Forest Dr", "city": "Canadensis", "state": "PA", "postalCode": "18325"}, {"address1": "226 Pinecrest Ln", "city": "Lansdale", "state": "PA", "postalCode": "19446"}, {"address1": "1061 Main St", "city": "Irwin", "state": "PA", "postalCode": "15642"}, {"address1": "180 Hedge Rd", "city": "Elverson", "state": "PA", "postalCode": "19520"}, {"address1": "2527 N 17th St", "city": "Philadelphia", "state": "PA", "postalCode": "19132"}, {"address1": "69 Dispatch Dr", "city": "Washington Crossing", "state": "PA", "postalCode": "18977"}, {"address1": "115 Kingston Rd", "city": "Media", "state": "PA", "postalCode": "19063"}, {"address1": "3408 N 19th St", "city": "Philadelphia", "state": "PA", "postalCode": "19140"}, {"address1": "1719 N Woodstock St", "city": "Philadelphia", "state": "PA", "postalCode": "19121"}, {"address1": "8460 Limekiln Pike", "city": "Wyncote", "state": "PA", "postalCode": "19095"}, {"address1": "6343 Valley Green Rd", "city": "Flourtown", "state": "PA", "postalCode": "19031"}, {"address1": "55 Grove Ave", "city": "Flourtown", "state": "PA", "postalCode": "19031"}, {"address1": "2108 Bridle Rd", "city": "Oreland", "state": "PA", "postalCode": "19075"}, {"address1": "6154 Parkside Rd", "city": "Flourtown", "state": "PA", "postalCode": "19031"}, {"address1": "1204 Stotesbury Ave", "city": "Glenside", "state": "PA", "postalCode": "19038"}, {"address1": "8615 Montgomery Ave", "city": "Glenside", "state": "PA", "postalCode": "19038"}, {"address1": "4401 W Briar Ln", "city": "Lafayette Hill", "state": "PA", "postalCode": "19444"}, {"address1": "523 Bethlehem Pike", "city": "Glenside", "state": "PA", "postalCode": "19038"}, {"address1": "4138 Jackson Dr", "city": "Lafayette Hill", "state": "PA", "postalCode": "19444"}, {"address1": "1315 Bradford Rd", "city": "Oreland", "state": "PA", "postalCode": "19075"}, {"address1": "611 Thornhill Dr", "city": "Lafayette Hill", "state": "PA", "postalCode": "19444"}, {"address1": "8818 Duveen Dr", "city": "Glenside", "state": "PA", "postalCode": "19038"}, {"address1": "6305 Farmar Ln", "city": "Flourtown", "state": "PA", "postalCode": "19031"}, {"address1": "1205 Cromwell Rd", "city": "Glenside", "state": "PA", "postalCode": "19038"}, {"address1": "1818 Scott Rd", "city": "Oreland", "state": "PA", "postalCode": "19075"}, {"address1": "9 Shepherds Way", "city": "Glenside", "state": "PA", "postalCode": "19038"}, {"address1": "6306 5th St", "city": "Green Lane", "state": "PA", "postalCode": "18054"}, {"address1": "1995 Hendricks Station Rd", "city": "Harleysville", "state": "PA", "postalCode": "19438"}, {"address1": "4505 Geryville Pike", "city": "Green Lane", "state": "PA", "postalCode": "18054"}, {"address1": "5050 Mclean Station Rd", "city": "Green Lane", "state": "PA", "postalCode": "18054"}, {"address1": "586 Hill Rd", "city": "Green Lane", "state": "PA", "postalCode": "18054"}, {"address1": "2792 Swamp Creek Rd", "city": "Green Lane", "state": "PA", "postalCode": "18054"}, {"address1": "5014 Mclean Station Rd", "city": "Green Lane", "state": "PA", "postalCode": "18054"}, {"address1": "1630 Haywood Rd", "city": "Perkiomenville", "state": "PA", "postalCode": "18074"}, {"address1": "1124 Perkiomenville Rd", "city": "Perkiomenville", "state": "PA", "postalCode": "18074"}, {"address1": "104 Shire Ln", "city": "Schwenksville", "state": "PA", "postalCode": "19473"}, {"address1": "3353 Salford Station Rd", "city": "Perkiomenville", "state": "PA", "postalCode": "18074"}, {"address1": "829 Ridge Rd", "city": "Telford", "state": "PA", "postalCode": "18969"}, {"address1": "1959 Old Skippack Rd", "city": "Harleysville", "state": "PA", "postalCode": "19438"}, {"address1": "1276 Hunter Ln", "city": "Perkiomenville", "state": "PA", "postalCode": "18074"}, {"address1": "Green Hill Green Ln", "city": "Green Lane", "state": "PA", "postalCode": "18054"}, {"address1": "2640 Stonehill Rd", "city": "Harleysville", "state": "PA", "postalCode": "19438"}, {"address1": "1623 Becker Rd", "city": "Green Lane", "state": "PA", "postalCode": "18054"}, {"address1": "794 Hildebrandt Rd", "city": "Perkiomenville", "state": "PA", "postalCode": "18074"}, {"address1": "3353 Salford Station Rd", "city": "Perkiomenville", "state": "PA", "postalCode": "18074"}, {"address1": "629 Willow Dr", "city": "Green Lane", "state": "PA", "postalCode": "18054"}, {"address1": "1709 Snyder Rd", "city": "Green Lane", "state": "PA", "postalCode": "18054"}, {"address1": "2839 Yost Rd", "city": "Perkiomenville", "state": "PA", "postalCode": "18074"}, {"address1": "2215 Hendricks Rd", "city": "Pennsburg", "state": "PA", "postalCode": "18073"}, {"address1": "714 Scott Ln", "city": "Wallingford", "state": "PA", "postalCode": "19086"}, {"address1": "1325 E Wadsworth Ave", "city": "Philadelphia", "state": "PA", "postalCode": "19150"}, {"address1": "942 E Roumfort Rd", "city": "Philadelphia", "state": "PA", "postalCode": "19150"}, {"address1": "2760 Narcissa Rd", "city": "Plymouth Meeting", "state": "PA", "postalCode": "19462"}, {"address1": "1409 Cardinal Dr", "city": "Bensalem", "state": "PA", "postalCode": "19020"}, {"address1": "1080 Oregon Ave", "city": "Bensalem", "state": "PA", "postalCode": "19020"}, {"address1": "2584 Salem Dr", "city": "Bensalem", "state": "PA", "postalCode": "19020"}, {"address1": "945 Roberts Rd", "city": "Bensalem", "state": "PA", "postalCode": "19020"}, {"address1": "1436 Atterbury Way", "city": "Bensalem", "state": "PA", "postalCode": "19020"}, {"address1": "339 N Mount Vernon Cir", "city": "Bensalem", "state": "PA", "postalCode": "19020"}, {"address1": "1899 Adler Rd", "city": "Bensalem", "state": "PA", "postalCode": "19020"}, {"address1": "339 N Mount Vernon Cir", "city": "Bensalem", "state": "PA", "postalCode": "19020"}, {"address1": "1506 Greenfield Dr", "city": "Bensalem", "state": "PA", "postalCode": "19020"}, {"address1": "318 Wallace Ave", "city": "Bensalem", "state": "PA", "postalCode": "19020"}, {"address1": "5084 Winfield Ct", "city": "Bensalem", "state": "PA", "postalCode": "19020"}, {"address1": "1234 Oriole Dr", "city": "Bensalem", "state": "PA", "postalCode": "19020"}, {"address1": "1065 Kings Ave", "city": "Bensalem", "state": "PA", "postalCode": "19020"}, {"address1": "2716 Berwyn Rd", "city": "Bensalem", "state": "PA", "postalCode": "19020"}, {"address1": "7825 Germantown Ave", "city": "Philadelphia", "state": "PA", "postalCode": "19118"}, {"address1": "7 Tiffany Dr", "city": "Perkasie", "state": "PA", "postalCode": "18944"}, {"address1": "110 Applewood Ln", "city": "Dublin", "state": "PA", "postalCode": "18917"}, {"address1": "1462 113rd Rte", "city": "Perkasie", "state": "PA", "postalCode": "18944"}, {"address1": "178 Elephant Rd", "city": "Dublin", "state": "PA", "postalCode": "18917"}, {"address1": "2520 Rickert Rd", "city": "Perkasie", "state": "PA", "postalCode": "18944"}, {"address1": "168 Elephant Rd", "city": "Dublin", "state": "PA", "postalCode": "18917"}, {"address1": "120 Middle Rd", "city": "Perkasie", "state": "PA", "postalCode": "18944"}, {"address1": "151 Maple Ave", "city": "Dublin", "state": "PA", "postalCode": "18917"}, {"address1": "103 Applewood Ln", "city": "Dublin", "state": "PA", "postalCode": "18917"}, {"address1": "808 Manor Dr", "city": "Dublin", "state": "PA", "postalCode": "18917"}, {"address1": "2520 Rickert Rd", "city": "Perkasie", "state": "PA", "postalCode": "18944"}, {"address1": "3033 Pointe Tremble Rd", "city": "Algonac", "state": "MI", "postalCode": "48001"}, {"address1": "16162 Kentucky Ave", "city": "Detroit", "state": "MI", "postalCode": "48221"}, {"address1": "4265 R Smith Blvd", "city": "Watervliet", "state": "MI", "postalCode": "49098"}, {"address1": "406 E Grove St", "city": "Greenville", "state": "MI", "postalCode": "48838"}, {"address1": "12729 Macclain St", "city": "Gowen", "state": "MI", "postalCode": "49326"}, {"address1": "2461 E Kasben Rd", "city": "Cedar", "state": "MI", "postalCode": "49621"}, {"address1": "8450 S Cold Spring Rd", "city": "Maple City", "state": "MI", "postalCode": "49664"}, {"address1": "417 E Harbor Hwy", "city": "Maple City", "state": "MI", "postalCode": "49664"}, {"address1": "1758 E Old Mountain Rd", "city": "Cedar", "state": "MI", "postalCode": "49621"}, {"address1": "2249 W Armstrong Rd", "city": "Empire", "state": "MI", "postalCode": "49630"}, {"address1": "5220 S Good Harbor Trl", "city": "Cedar", "state": "MI", "postalCode": "49621"}, {"address1": "13435 S Cedar Rd", "city": "Cedar", "state": "MI", "postalCode": "49621"}, {"address1": "10806 S Fritz Rd", "city": "Maple City", "state": "MI", "postalCode": "49664"}, {"address1": "4915 Skyline Dr", "city": "Cedar", "state": "MI", "postalCode": "49621"}, {"address1": "2510 Cherry Ln", "city": "Cedar", "state": "MI", "postalCode": "49621"}, {"address1": "5718 S Lime Lake Rd", "city": "Cedar", "state": "MI", "postalCode": "49621"}, {"address1": "8273 S Solon Park Rd", "city": "Cedar", "state": "MI", "postalCode": "49621"}, {"address1": "10025 S Maple City Rd", "city": "Maple City", "state": "MI", "postalCode": "49664"}, {"address1": "8490 S Bohemian Rd", "city": "Maple City", "state": "MI", "postalCode": "49664"}, {"address1": "11468 Fourpoint Rd SE", "city": "Fife Lake", "state": "MI", "postalCode": "49633"}, {"address1": "9134 N 8 Mile Rd", "city": "Lake City", "state": "MI", "postalCode": "49651"}, {"address1": "502 E Cutcheon Rd", "city": "Lake City", "state": "MI", "postalCode": "49651"}, {"address1": "4474 E Moorestown Rd", "city": "Lake City", "state": "MI", "postalCode": "49651"}, {"address1": "2101 E Moorestown Rd", "city": "Lake City", "state": "MI", "postalCode": "49651"}, {"address1": "600 E Cutcheon Rd", "city": "Lake City", "state": "MI", "postalCode": "49651"}, {"address1": "9208 N Central St", "city": "Lake City", "state": "MI", "postalCode": "49651"}, {"address1": "9261 N Forward Rd", "city": "Lake City", "state": "MI", "postalCode": "49651"}, {"address1": "305 Burns St", "city": "Charlevoix", "state": "MI", "postalCode": "49720"}, {"address1": "6415 Burgess Rd", "city": "Charlevoix", "state": "MI", "postalCode": "49720"}, {"address1": "5732 M 66 N", "city": "Charlevoix", "state": "MI", "postalCode": "49720"}, {"address1": "11534 Evergreen Ln", "city": "Charlevoix", "state": "MI", "postalCode": "49720"}, {"address1": "743 Stratford Ln", "city": "Indian River", "state": "MI", "postalCode": "49749"}, {"address1": "1919 Dana Dr", "city": "Indian River", "state": "MI", "postalCode": "49749"}, {"address1": "6071 Pine Trace Rd", "city": "Indian River", "state": "MI", "postalCode": "49749"}, {"address1": "775 E Mullett Lake Rd", "city": "Indian River", "state": "MI", "postalCode": "49749"}, {"address1": "4689 E Burt Lake Rd", "city": "Indian River", "state": "MI", "postalCode": "49749"}, {"address1": "6028 Berry Ln", "city": "Indian River", "state": "MI", "postalCode": "49749"}, {"address1": "2862 Arlene", "city": "Indian River", "state": "MI", "postalCode": "49749"}, {"address1": "6330 Pineway Path", "city": "Indian River", "state": "MI", "postalCode": "49749"}, {"address1": "6540", "city": "Indian River", "state": "MI", "postalCode": "49749"}, {"address1": "1431 N S Straits Hwy", "city": "Indian River", "state": "MI", "postalCode": "49749"}, {"address1": "7604 M 68", "city": "Indian River", "state": "MI", "postalCode": "49749"}, {"address1": "1083 Eagles Nest Rd", "city": "Indian River", "state": "MI", "postalCode": "49749"}, {"address1": "4660 Inland Route Dr", "city": "Indian River", "state": "MI", "postalCode": "49749"}, {"address1": "6083 Mullett Burt Rd", "city": "Cheboygan", "state": "MI", "postalCode": "49721"}, {"address1": "1206 N Wahbee Ave", "city": "Indian River", "state": "MI", "postalCode": "49749"}, {"address1": "1012 Lynn Dr", "city": "Indian River", "state": "MI", "postalCode": "49749"}, {"address1": "3374 Nabanois Trl", "city": "Indian River", "state": "MI", "postalCode": "49749"}, {"address1": "6111 Prospect Rd", "city": "Indian River", "state": "MI", "postalCode": "49749"}, {"address1": "3339 Lynn Dr", "city": "Indian River", "state": "MI", "postalCode": "49749"}, {"address1": "3477 White Goose Dr", "city": "Hesperia", "state": "MI", "postalCode": "49421"}, {"address1": "3553 White Goose Dr", "city": "Cheboygan", "state": "MI", "postalCode": "49721"}, {"address1": "6515 South Ave", "city": "Indian River", "state": "MI", "postalCode": "49749"}, {"address1": "2698 Martin Ln", "city": "Indian River", "state": "MI", "postalCode": "49749"}, {"address1": "3189 E Mullett Lake Rd", "city": "Indian River", "state": "MI", "postalCode": "49749"}, {"address1": "3167 Gratiot Rd", "city": "Indian River", "state": "MI", "postalCode": "49749"}, {"address1": "3459 White Goose Dr", "city": "Cheboygan", "state": "MI", "postalCode": "49721"}, {"address1": "4638 Forest Trl", "city": "Indian River", "state": "MI", "postalCode": "49749"}, {"address1": "3551 Greenmans Point Rd", "city": "Cheboygan", "state": "MI", "postalCode": "49721"}, {"address1": "7224 S Straits Hwy", "city": "Indian River", "state": "MI", "postalCode": "49749"}, {"address1": "1159 Lynn Dr", "city": "Indian River", "state": "MI", "postalCode": "49749"}, {"address1": "6406 Burchfield Rd", "city": "Indian River", "state": "MI", "postalCode": "49749"}, {"address1": "6424 Burchfield Rd", "city": "Indian River", "state": "MI", "postalCode": "49749"}, {"address1": "4709 Camelot", "city": "Harbor Springs", "state": "MI", "postalCode": "49740"}, {"address1": "575 E Bay St", "city": "Harbor Springs", "state": "MI", "postalCode": "49740"}, {"address1": "3848 N Lake Shore Dr", "city": "Harbor Springs", "state": "MI", "postalCode": "49740"}, {"address1": "5285 Aspen Way", "city": "Harbor Springs", "state": "MI", "postalCode": "49740"}, {"address1": "2740 N Lake Shore Dr", "city": "Harbor Springs", "state": "MI", "postalCode": "49740"}, {"address1": "4749 Pleasantview Rd", "city": "Harbor Springs", "state": "MI", "postalCode": "49740"}, {"address1": "2244 Pinecrest St", "city": "Harbor Springs", "state": "MI", "postalCode": "49740"}, {"address1": "417 Glenn Dr", "city": "Harbor Springs", "state": "MI", "postalCode": "49740"}, {"address1": "421 Glenn Dr", "city": "Harbor Springs", "state": "MI", "postalCode": "49740"}, {"address1": "5795 Cummings Ln", "city": "Harbor Springs", "state": "MI", "postalCode": "49740"}, {"address1": "549 E 3rd St", "city": "Harbor Springs", "state": "MI", "postalCode": "49740"}, {"address1": "368 Church St", "city": "Harbor Springs", "state": "MI", "postalCode": "49740"}, {"address1": "188 Traverse St", "city": "Harbor Springs", "state": "MI", "postalCode": "49740"}, {"address1": "4839 Croton Hardy Dr", "city": "Newaygo", "state": "MI", "postalCode": "49337"}, {"address1": "3660 S Maple Valley Rd", "city": "Suttons Bay", "state": "MI", "postalCode": "49682"}, {"address1": "535 S Lake Shore Dr", "city": "Lake Leelanau", "state": "MI", "postalCode": "49653"}, {"address1": "6455 E Lingaur Rd", "city": "Lake Leelanau", "state": "MI", "postalCode": "49653"}, {"address1": "8211 E Duck Lake Rd", "city": "Suttons Bay", "state": "MI", "postalCode": "49682"}, {"address1": "3538 S Lake Leelanau Dr", "city": "Lake Leelanau", "state": "MI", "postalCode": "49653"}, {"address1": "120 S Lake Leelanau Dr", "city": "Lake Leelanau", "state": "MI", "postalCode": "49653"}, {"address1": "3101 S Lake Shore Dr", "city": "Lake Leelanau", "state": "MI", "postalCode": "49653"}, {"address1": "502 S Union St", "city": "Leland", "state": "MI", "postalCode": "49654"}, {"address1": "5775 E Yellow Birch Ln", "city": "Leland", "state": "MI", "postalCode": "49654"}, {"address1": "3681 S Lake Leelanau Dr", "city": "Lake Leelanau", "state": "MI", "postalCode": "49653"}, {"address1": "305 N Lake St", "city": "Leland", "state": "MI", "postalCode": "49654"}, {"address1": "305 N Main St", "city": "Leland", "state": "MI", "postalCode": "49654"}, {"address1": "73 Highland Dr", "city": "Lake Leelanau", "state": "MI", "postalCode": "49653"}, {"address1": "4773 W Golfview Dr", "city": "Leland", "state": "MI", "postalCode": "49654"}, {"address1": "4810 S Circle Dr", "city": "Kalkaska", "state": "MI", "postalCode": "49646"}, {"address1": "3798 Bear Ln NE", "city": "Kalkaska", "state": "MI", "postalCode": "49646"}, {"address1": "4012 N Sharon Rd SE", "city": "Kalkaska", "state": "MI", "postalCode": "49646"}, {"address1": "7093 Wc Cross Dr NE", "city": "Kalkaska", "state": "MI", "postalCode": "49646"}, {"address1": "10010 Gillow Rd SE", "city": "Fife Lake", "state": "MI", "postalCode": "49633"}, {"address1": "7634 Bridge Ln NE", "city": "Kalkaska", "state": "MI", "postalCode": "49646"}, {"address1": "2576 Log Lake Rd NE", "city": "Kalkaska", "state": "MI", "postalCode": "49646"}, {"address1": "560 Penstock Drive", "city": "Grass Valley", "state": "CA", "postalCode": "95945"}, {"address1": "637 Britannia Drive", "city": "Vallejo", "state": "CA", "postalCode": "94591"}, {"address1": "22572 Toreador Drive", "city": "Salinas", "state": "CA", "postalCode": "93908"}, {"address1": "49548 Road 200", "city": "O'Neals", "state": "CA", "postalCode": "93645"}, {"address1": "20930 Todd Valley Road", "city": "Foresthill", "state": "CA", "postalCode": "95631"}, {"address1": "125 John Street", "city": "Santa Cruz", "state": "CA", "postalCode": "95060"}, {"address1": "31353 Santa Elena Way", "city": "Union City", "state": "CA", "postalCode": "94587"}, {"address1": "10826 Pointe Royal Drive", "city": "Bakersfield", "state": "CA", "postalCode": "93311"}, {"address1": "19416 Barclay Road", "city": "Castro Valley", "state": "CA", "postalCode": "94546"}, {"address1": "21950 Arnold Center Road", "city": "Carson", "state": "CA", "postalCode": "90810"}, {"address1": "2313 Vegas Avenue", "city": "Castro Valley", "state": "CA", "postalCode": "94546"}, {"address1": "38676 Greenwich Circle", "city": "Fremont", "state": "CA", "postalCode": "94536"}, {"address1": "3228 Chettenham Drive", "city": "Rancho Cordova", "state": "CA", "postalCode": "95670"}, {"address1": "1536 North Main Street", "city": "Salinas", "state": "CA", "postalCode": "93906"}, {"address1": "1732 27th Avenue", "city": "Oakland", "state": "CA", "postalCode": "94601"}, {"address1": "1643 Oxford Street", "city": "Berkeley", "state": "CA", "postalCode": "94709"}, {"address1": "26466 Mockingbird Lane", "city": "Hayward", "state": "CA", "postalCode": "94544"}, {"address1": "1004 Bellflower Street", "city": "Livermore", "state": "CA", "postalCode": "94551"}, {"address1": "4738 Mallard Common", "city": "Fremont", "state": "CA", "postalCode": "94555"}, {"address1": "4438 Maine Avenue", "city": "Baldwin Park", "state": "CA", "postalCode": "91706"}, {"address1": "107 Guaymas Place", "city": "Davis", "state": "CA", "postalCode": "95616"}, {"address1": "622 Thomas Street", "city": "Woodland", "state": "CA", "postalCode": "95776"}, {"address1": "2755 Country Drive", "city": "Fremont", "state": "CA", "postalCode": "94536"}, {"address1": "145 Grau Drive", "city": "Fremont", "state": "CA", "postalCode": "94536"}, {"address1": "3959 Fairlands Drive", "city": "Pleasanton", "state": "CA", "postalCode": "94588"}, {"address1": "9036 Calico Court", "city": "Hesperia", "state": "CA", "postalCode": "92344"}, {"address1": "90 Via Verde", "city": "San Lorenzo", "state": "CA", "postalCode": "94580"}, {"address1": "553 South Arlington Road", "city": "Orange", "state": "CA", "postalCode": "92869"}, {"address1": "6214 Herzog Street", "city": "Oakland", "state": "CA", "postalCode": "94608"}, {"address1": "1452 55th Avenue", "city": "Oakland", "state": "CA", "postalCode": "94621"}, {"address1": "4255 Tanager Common", "city": "Fremont", "state": "CA", "postalCode": "94555"}, {"address1": "968 Virginia Avenue", "city": "Olivehurst", "state": "CA", "postalCode": "95961"}, {"address1": "11150 Sun Valley Drive", "city": "Oakland", "state": "CA", "postalCode": "94605"}, {"address1": "260 Rio Del Mar Boulevard", "city": "Aptos", "state": "CA", "postalCode": "95003"}, {"address1": "2515 60th Avenue", "city": "Oakland", "state": "CA", "postalCode": "94605"}, {"address1": "1011 San Jose Street", "city": "San Leandro", "state": "CA", "postalCode": "94577"}, {"address1": "20375 Wisteria Street", "city": "Castro Valley", "state": "CA", "postalCode": "94546"}, {"address1": "2531 Prestwick Avenue", "city": "Concord", "state": "CA", "postalCode": "94519"}, {"address1": "2747 68th Avenue", "city": "Oakland", "state": "CA", "postalCode": "94605"}, {"address1": "1314 89th Avenue", "city": "Oakland", "state": "CA", "postalCode": "94621"}, {"address1": "10881 Northforde Drive", "city": "Cupertino", "state": "CA", "postalCode": "95014"}, {"address1": "4439 Gale Street", "city": "Livermore", "state": "CA", "postalCode": "94550"}, {"address1": "152 Holly Court", "city": "Mountain View", "state": "CA", "postalCode": "94043"}, {"address1": "1797 Pasatiempo Drive", "city": "Chico", "state": "CA", "postalCode": "95928"}, {"address1": "915 Sacramento Street", "city": "Bakersfield", "state": "CA", "postalCode": "93305"}, {"address1": "4016 Doane Street", "city": "Fremont", "state": "CA", "postalCode": "94538"}, {"address1": "3215 Madsen Street", "city": "Hayward", "state": "CA", "postalCode": "94541"}, {"address1": "222 Quince Street", "city": "San Diego", "state": "CA", "postalCode": "92103"}, {"address1": "732 Kevin Court", "city": "Oakland", "state": "CA", "postalCode": "94621"}, {"address1": "3377 Sandstone Court", "city": "Pleasanton", "state": "CA", "postalCode": "94588"}, {"address1": "894 Windmill Park Lane", "city": "Mountain View", "state": "CA", "postalCode": "94043"}, {"address1": "618 Staley Avenue", "city": "Hayward", "state": "CA", "postalCode": "94541"}, {"address1": "840 Inglewood Drive", "city": "West Sacramento", "state": "CA", "postalCode": "95605"}, {"address1": "1528 Stafford Avenue", "city": "Hayward", "state": "CA", "postalCode": "94541"}, {"address1": "3578 Galindo Street", "city": "Oakland", "state": "CA", "postalCode": "94601"}, {"address1": "2443 Sierra Nevada Road", "city": "Mammoth Lakes", "state": "CA", "postalCode": "93546"}, {"address1": "25538 Calaroga Avenue", "city": "Hayward", "state": "CA", "postalCode": "94545"}, {"address1": "1521 159th Avenue", "city": "San Leandro", "state": "CA", "postalCode": "94578"}, {"address1": "73455 Twentynine Palms Highway", "city": "Twentynine Palms", "state": "CA", "postalCode": "92277"}, {"address1": "24147 Clinton Court", "city": "Hayward", "state": "CA", "postalCode": "94545"}, {"address1": "236 Alden Road", "city": "Hayward", "state": "CA", "postalCode": "94541"}, {"address1": "2042 High Street", "city": "Oakland", "state": "CA", "postalCode": "94601"}, {"address1": "6244 Sun River Drive", "city": "Sacramento", "state": "CA", "postalCode": "95824"}, {"address1": "36043 Soapberry Commons", "city": "Fremont", "state": "CA", "postalCode": "94536"}, {"address1": "31130 Meadowbrook Avenue", "city": "Hayward", "state": "CA", "postalCode": "94544"}, {"address1": "14524 Lodestar Drive", "city": "Grass Valley", "state": "CA", "postalCode": "95949"}, {"address1": "136 Acacia Drive", "city": "Blue Lake", "state": "CA", "postalCode": "95525"}, {"address1": "2035 Ninth Street", "city": "Berkeley", "state": "CA", "postalCode": "94710"}, {"address1": "2807 Huxley Place", "city": "Fremont", "state": "CA", "postalCode": "94555"}, {"address1": "169 Avenida Drive", "city": "Berkeley", "state": "CA", "postalCode": "94708"}, {"address1": "281 MacArthur Boulevard", "city": "Oakland", "state": "CA", "postalCode": "94610"}, {"address1": "4876 Norris Road", "city": "Fremont", "state": "CA", "postalCode": "94536"}, {"address1": "19 Heritage", "city": "Oakland", "state": "CA", "postalCode": "94605"}, {"address1": "330 Michell Court", "city": "Livermore", "state": "CA", "postalCode": "94551"}, {"address1": "6145 East Castro Valley Boulevard", "city": "Castro Valley", "state": "CA", "postalCode": "94552"}, {"address1": "18789 Crane Avenue", "city": "Castro Valley", "state": "CA", "postalCode": "94546"}, {"address1": "6431 Shattuck Avenue", "city": "Oakland", "state": "CA", "postalCode": "94609"}, {"address1": "11522 Country Spring Court", "city": "Cupertino", "state": "CA", "postalCode": "95014"}, {"address1": "129 Grant Street", "city": "Redlands", "state": "CA", "postalCode": "92373"}, {"address1": "2632 Jackson Street East", "city": "Carson", "state": "CA", "postalCode": "90810"}, {"address1": "26563 Chisholm Court", "city": "Hayward", "state": "CA", "postalCode": "94544"}, {"address1": "424 Callan Avenue", "city": "San Leandro", "state": "CA", "postalCode": "94577"}, {"address1": "918 Cheryl Ann Circle", "city": "Hayward", "state": "CA", "postalCode": "94544"}, {"address1": "4231 Miramonte Way", "city": "Union City", "state": "CA", "postalCode": "94587"}, {"address1": "1987 Boxer Court", "city": "San Lorenzo", "state": "CA", "postalCode": "94580"}, {"address1": "5792 Owl Hill Avenue", "city": "Santa Rosa", "state": "CA", "postalCode": "95409"}, {"address1": "2414 Parker Street", "city": "Berkeley", "state": "CA", "postalCode": "94704"}, {"address1": "310 12th Avenue", "city": "Santa Cruz", "state": "CA", "postalCode": "95062"}, {"address1": "2685 California Street", "city": "Mountain View", "state": "CA", "postalCode": "94040"}, {"address1": "2134 West Mills Drive", "city": "Orange", "state": "CA", "postalCode": "92868"}, {"address1": "6925 Lariat Lane", "city": "Castro Valley", "state": "CA", "postalCode": "94552"}, {"address1": "2335 Orchard View Lane", "city": "Escondido", "state": "CA", "postalCode": "92027"}, {"address1": "5805 Armada Drive", "city": "Carlsbad", "state": "CA", "postalCode": "92008"}, {"address1": "22825 Paseo Place", "city": "Hayward", "state": "CA", "postalCode": "94541"}, {"address1": "2902 Flint Street", "city": "Union City", "state": "CA", "postalCode": "94587"}, {"address1": "1238 Roanwood Way", "city": "Concord", "state": "CA", "postalCode": "94521"}, {"address1": "3835 Oakes Drive", "city": "Hayward", "state": "CA", "postalCode": "94542"}, {"address1": "3538 Mendenhall Court", "city": "Pleasanton", "state": "CA", "postalCode": "94588"}, {"address1": "1011 Devon Drive", "city": "Hayward", "state": "CA", "postalCode": "94542"}, {"address1": "1234 Carmel Street", "city": "Madera", "state": "CA", "postalCode": "93638"}, {"address1": "22538 6th Street", "city": "Hayward", "state": "CA", "postalCode": "94541"}, {"address1": "4500 Margalo Avenue", "city": "Bakersfield", "state": "CA", "postalCode": "93313"}, {"address1": "5396 North Reese Avenue", "city": "Fresno", "state": "CA", "postalCode": "93722"}, {"address1": "1219 Carleton Street", "city": "Berkeley", "state": "CA", "postalCode": "94702"}, {"address1": "422 Richmond Street", "city": "El Cerrito", "state": "CA", "postalCode": "94530"}, {"address1": "5264 Shafter Avenue", "city": "Oakland", "state": "CA", "postalCode": "94618"}, {"address1": "5732 Jean Drive", "city": "Union City", "state": "CA", "postalCode": "94587"}, {"address1": "1222 Arcade Boulevard", "city": "Sacramento", "state": "CA", "postalCode": "95815"}, {"address1": "3600 Pennsylvania Avenue", "city": "Fremont", "state": "CA", "postalCode": "94536"}, {"address1": "6420 Via Baron", "city": "Rancho Palos Verdes", "state": "CA", "postalCode": "90275"}, {"address1": "37675 Fremont Boulevard", "city": "Fremont", "state": "CA", "postalCode": "94536"}, {"address1": "849 East Victoria Street", "city": "Carson", "state": "CA", "postalCode": "90746"}, {"address1": "4981 Shirley Way", "city": "Livermore", "state": "CA", "postalCode": "94550"}, {"address1": "1300 Lemos Lane", "city": "Fremont", "state": "CA", "postalCode": "94539"}, {"address1": "970 Old Oak Road", "city": "Livermore", "state": "CA", "postalCode": "94550"}, {"address1": "441 Merritt Avenue", "city": "Oakland", "state": "CA", "postalCode": "94610"}]